[{"OBJECT_NAME":"OBJECT V","OBJECT_ID":"2023-085V","EPOCH":"2026-03-09T21:44:00.165408","MEAN_MOTION":15.30745852,"ECCENTRICITY":0.00069081,"INCLINATION":97.4843,"RA_OF_ASC_NODE":179.3833,"ARG_OF_PERICENTER":71.0503,"MEAN_ANOMALY":289.1485,"EPHEMERIS_TYPE":0,"CLASSIFICATION_TYPE":"U","NORAD_CAT_ID":57023,"ELEMENT_SET_NO":999,"REV_AT_EPOCH":15149,"BSTAR":0.00067780507,"MEAN_MOTION_DOT":0.00020109,"MEAN_MOTION_DDOT":0},{"OBJECT_NAME":"STARLINK-34594","OBJECT_ID":"2025-167L","EPOCH":"2026-03-09T03:41:39.519168","MEAN_MOTION":15.30228068,"ECCENTRICITY":0.00018354,"INCLINATION":53.1625,"RA_OF_ASC_NODE":29.445,"ARG_OF_PERICENTER":84.837,"MEAN_ANOMALY":275.284,"EPHEMERIS_TYPE":0,"CLASSIFICATION_TYPE":"U","NORAD_CAT_ID":65088,"ELEMENT_SET_NO":999,"REV_AT_EPOCH":3339,"BSTAR":0.0014108964,"MEAN_MOTION_DOT":0.00041699,"MEAN_MOTION_DDOT":0}]
